[{"OBJECT_NAME":"GCOM-C (SHIKISAI)","OBJECT_ID":"2017-082A","EPOCH":"2026-03-09T22:50:15.762048","MEAN_MOTION":14.27292109,"ECCENTRICITY":0.00011018,"INCLINATION":98.6348,"RA_OF_ASC_NODE":143.8758,"ARG_OF_PERICENTER":107.3468,"MEAN_ANOMALY":252.7834,"EPHEMERIS_TYPE":0,"CLASSIFICATION_TYPE":"U","NORAD_CAT_ID":43065,"ELEMENT_SET_NO":999,"REV_AT_EPOCH":42778,"BSTAR":9.0011429e-5,"MEAN_MOTION_DOT":1.76e-6,"MEAN_MOTION_DDOT":0},{"OBJECT_NAME":"NOAA 16 DEB","OBJECT_ID":"2000-055FQ","EPOCH":"2026-03-08T14:50:42.133344","MEAN_MOTION":14.26930322,"ECCENTRICITY":0.00027263,"INCLINATION":98.6292,"RA_OF_ASC_NODE":124.2608,"ARG_OF_PERICENTER":93.397,"MEAN_ANOMALY":266.7522,"EPHEMERIS_TYPE":0,"CLASSIFICATION_TYPE":"U","NORAD_CAT_ID":41264,"ELEMENT_SET_NO":999,"REV_AT_EPOCH":52748,"BSTAR":0.0018189529,"MEAN_MOTION_DOT":4.378e-5,"MEAN_MOTION_DDOT":0}]
